OBJECT_NAME,OBJECT_ID,EPOCH,MEAN_MOTION,ECCENTRICITY,INCLINATION,RA_OF_ASC_NODE,ARG_OF_PERICENTER,MEAN_ANOMALY,EPHEMERIS_TYPE,CLASSIFICATION_TYPE,NORAD_CAT_ID,ELEMENT_SET_NO,REV_AT_EPOCH,BSTAR,MEAN_MOTION_DOT,MEAN_MOTION_DDOT
QIANFAN-147,2026-108C,2026-06-06T20:53:06.876672,14.17033439,.00156313,89.0119,23.3658,143.4402,216.7857,0,U,69106,999,288,.13504581E-3,.286E-5,0
QIANFAN-148,2026-108D,2026-06-06T20:44:26.483424,14.17402565,.00161322,89.0120,23.3651,148.3299,211.8863,0,U,69107,999,288,.13331479E-3,.284E-5,0
QIANFAN-149,2026-108E,2026-06-06T20:40:30.435168,14.17857107,.00157829,89.0122,23.3651,147.5942,212.6220,0,U,69108,999,288,.1358295E-3,.292E-5,0
QIANFAN-150,2026-108F,2026-06-06T22:10:07.087296,14.18305593,.00158285,89.0123,23.3562,149.1119,211.1005,0,U,69109,999,289,.13077095E-3,.284E-5,0
QIANFAN-151,2026-108G,2026-06-06T22:02:04.309152,14.18801346,.00159479,89.0122,23.3551,147.6901,212.5269,0,U,69110,999,289,.14565024E-3,.317E-5,0
QIANFAN-152,2026-108H,2026-06-06T20:13:42.606336,14.19418605,.0015149,89.0121,23.3621,147.8099,212.4019,0,U,69111,999,288,.13945016E-3,.308E-5,0
QIANFAN-153,2026-108J,2026-06-06T21:47:54.286944,14.19641746,.00163546,89.0118,23.3531,147.5635,212.6563,0,U,69112,999,289,.13287819E-3,.295E-5,0
QIANFAN-154,2026-108K,2026-06-06T21:38:14.476416,14.20189815,.00160192,89.0123,23.3529,145.4957,214.7276,0,U,69113,999,289,.13190143E-3,.296E-5,0
QIANFAN-155,2026-108L,2026-06-06T21:42:22.670784,14.19535194,.00167377,89.0123,23.3533,145.8433,214.3837,0,U,69114,999,289,.13802465E-3,.306E-5,0
QIANFAN-156,2026-108M,2026-06-06T21:31:28.987392,14.20957636,.00163635,89.0126,23.3527,147.0709,213.1505,0,U,69115,999,289,.13164159E-3,.3E-5,0
QIANFAN-157,2026-108N,2026-06-06T07:24:56.109600,14.24908081,.00165908,89.0123,23.4118,153.6669,206.5371,0,U,69116,999,281,.15435736E-3,.375E-5,0
QIANFAN-158,2026-108P,2026-06-06T21:22:20.781120,14.21847125,.00163001,89.0122,23.3510,148.4078,211.8095,0,U,69117,999,289,.13748419E-3,.318E-5,0
QIANFAN-159,2026-108Q,2026-06-06T21:16:35.784192,14.22293477,.00160052,89.0120,23.3502,148.2501,211.9658,0,U,69118,999,289,.14209863E-3,.33E-5,0
QIANFAN-160,2026-108R,2026-06-06T21:11:55.877568,14.22717386,.00157224,89.0122,23.3503,148.0982,212.1165,0,U,69119,999,289,.34371913E-4,.92E-6,0
QIANFAN-161,2026-108S,2026-06-06T21:06:55.099296,14.23188785,.00157365,89.0122,23.3496,148.8185,211.3944,0,U,69120,999,289,.13558075E-3,.321E-5,0
QIANFAN-162,2026-108T,2026-06-06T21:03:53.583264,14.23624201,.00155715,89.0122,23.3492,149.9973,210.2115,0,U,69121,999,289,.13544742E-3,.323E-5,0
SMILE,2026-109A,2026-05-24T15:40:35.120928,14.57062785,.00091232,70.0007,229.2745,259.5159,100.4951,0,U,69123,999,80,-.42378883E-3,-.1976E-4,0
STARLINK-37726,2026-110A,2026-06-06T22:00:03.000096,15.49081937,.00013543,97.2859,354.0394,90.8476,11.1518,0,U,69124,999,400,.29649137E-2,.16395E-2,0
STARLINK-37722,2026-110B,2026-06-06T22:00:03.000096,15.62912885,.0001563,97.2851,354.1729,90.3081,326.9034,0,U,69125,999,405,-.2725586E-1,-.2141746E-1,0
STARLINK-37715,2026-110C,2026-06-06T22:00:03.000096,15.72795380,.00019601,97.2844,354.2144,88.9383,65.6335,0,U,69126,999,400,-.21038868E-1,-.2431148E-1,0
STARLINK-37706,2026-110D,2026-06-06T22:00:03.000096,15.73139173,.00019962,97.2844,354.2172,91.4381,69.0832,0,U,69127,999,400,-.20751498E-1,-.2433353E-1,0
STARLINK-37723,2026-110E,2026-06-06T22:00:03.000096,15.73567417,.0002,97.2843,354.2202,87.8969,79.1224,0,U,69128,999,400,-.20518945E-1,-.2448346E-1,0
STARLINK-37720,2026-110F,2026-06-06T22:00:03.000096,15.49107540,.00018832,97.2856,354.0593,94.4469,56.4825,0,U,69129,999,400,.25144952E-2,.138708E-2,0
STARLINK-37533,2026-110G,2026-06-05T20:51:48.022848,15.80753113,.00016063,97.2839,353.1262,86.5092,273.6360,0,U,69130,999,385,-.28200148E-3,-.53675E-3,0
STARLINK-37530,2026-110H,2026-06-05T22:21:52.099200,15.80840143,.000083,97.2840,353.1944,62.1150,298.0203,0,U,69131,999,386,.27125343E-3,.52184E-3,0
STARLINK-37660,2026-110J,2026-06-06T22:00:03.000096,15.64974473,.00016846,97.2845,354.1901,82.3170,16.3085,0,U,69132,999,400,-.21515976E-1,-.1869442E-1,0
STARLINK-37633,2026-110K,2026-06-06T22:00:03.000096,15.65546749,.00013292,97.2847,354.1968,95.5705,18.8900,0,U,69133,999,400,-.79362166E-2,-.727506E-2,0
STARLINK-37361,2026-110L,2026-06-06T22:00:03.000096,15.76032631,.00019131,97.2841,354.2376,94.8469,111.7152,0,U,69134,999,400,-.18414489E-1,-.244763E-1,0
STARLINK-37372,2026-110M,2026-06-06T22:00:03.000096,15.67020516,.00020083,97.2847,354.2142,86.3701,68.4413,0,U,69135,999,400,-.27535165E-1,-.2546857E-1,0
