QIANFAN-147             
1 69106U 26108C   26157.87021848  .00000286  00000+0  13505-3 0  9990
2 69106  89.0119  23.3658 0015631 143.4402 216.7857 14.17033439  2882
QIANFAN-148             
1 69107U 26108D   26157.86419541  .00000284  00000+0  13331-3 0  9996
2 69107  89.0120  23.3651 0016132 148.3299 211.8863 14.17402565  2886
QIANFAN-149             
1 69108U 26108E   26157.86146337  .00000292  00000+0  13583-3 0  9995
2 69108  89.0122  23.3651 0015782 147.5942 212.6220 14.17857107  2887
QIANFAN-150             
1 69109U 26108F   26157.92369314  .00000284  00000+0  13077-3 0  9994
2 69109  89.0123  23.3562 0015828 149.1119 211.1005 14.18305593  2899
QIANFAN-151             
1 69110U 26108G   26157.91810543  .00000317  00000+0  14565-3 0  9990
2 69110  89.0122  23.3551 0015947 147.6901 212.5269 14.18801346  2896
QIANFAN-152             
1 69111U 26108H   26157.84285424  .00000308  00000+0  13945-3 0  9998
2 69111  89.0121  23.3621 0015149 147.8099 212.4019 14.19418605  2882
QIANFAN-153             
1 69112U 26108J   26157.90826721  .00000295  00000+0  13288-3 0  9992
2 69112  89.0118  23.3531 0016354 147.5635 212.6563 14.19641746  2892
QIANFAN-154             
1 69113U 26108K   26157.90155644  .00000296  00000+0  13190-3 0  9995
2 69113  89.0123  23.3529 0016019 145.4957 214.7276 14.20189815  2898
QIANFAN-155             
1 69114U 26108L   26157.90442906  .00000306  00000+0  13802-3 0  9998
2 69114  89.0123  23.3533 0016737 145.8433 214.3837 14.19535194  2896
QIANFAN-156             
1 69115U 26108M   26157.89686328  .00000300  00000+0  13164-3 0  9990
2 69115  89.0126  23.3527 0016363 147.0709 213.1505 14.20957636  2898
QIANFAN-157             
1 69116U 26108N   26157.30898275  .00000375  00000+0  15436-3 0  9999
2 69116  89.0123  23.4118 0016590 153.6669 206.5371 14.24908081  2816
QIANFAN-158             
1 69117U 26108P   26157.89051830  .00000318  00000+0  13748-3 0  9993
2 69117  89.0122  23.3510 0016300 148.4078 211.8095 14.21847125  2894
QIANFAN-159             
1 69118U 26108Q   26157.88652528  .00000330  00000+0  14210-3 0  9993
2 69118  89.0120  23.3502 0016005 148.2501 211.9658 14.22293477  2897
QIANFAN-160             
1 69119U 26108R   26157.88328562  .00000092  00000+0  34372-4 0  9999
2 69119  89.0122  23.3503 0015722 148.0982 212.1165 14.22717386  2893
QIANFAN-161             
1 69120U 26108S   26157.87980439  .00000321  00000+0  13558-3 0  9994
2 69120  89.0122  23.3496 0015736 148.8185 211.3944 14.23188785  2896
QIANFAN-162             
1 69121U 26108T   26157.87770351  .00000323  00000+0  13545-3 0  9993
2 69121  89.0122  23.3492 0015571 149.9973 210.2115 14.23624201  2893
SMILE                   
1 69123U 26109A   26144.65318427 -.00001976  00000+0 -42379-3 0  9994
2 69123  70.0007 229.2745 0009123 259.5159 100.4951 14.57062785   802
STARLINK-37726          
1 69124U 26110A   26157.91670139  .00163950  00000+0  29649-2 0  9994
2 69124  97.2859 354.0394 0001354  90.8476  11.1518 15.49081937  4007
STARLINK-37722          
1 69125U 26110B   26157.91670139 -.02141746  00000+0 -27256-1 0  9999
2 69125  97.2851 354.1729 0001563  90.3081 326.9034 15.62912885  4057
STARLINK-37715          
1 69126U 26110C   26157.91670139 -.02431148  00000+0 -21039-1 0  9991
2 69126  97.2844 354.2144 0001960  88.9383  65.6335 15.72795380  4007
STARLINK-37706          
1 69127U 26110D   26157.91670139 -.02433353  00000+0 -20751-1 0  9992
2 69127  97.2844 354.2172 0001996  91.4381  69.0832 15.73139173  4008
STARLINK-37723          
1 69128U 26110E   26157.91670139 -.02448346  00000+0 -20519-1 0  9993
2 69128  97.2843 354.2202 0002000  87.8969  79.1224 15.73567417  4003
STARLINK-37720          
1 69129U 26110F   26157.91670139  .00138708  00000+0  25145-2 0  9999
2 69129  97.2856 354.0593 0001883  94.4469  56.4825 15.49107540  4001
STARLINK-37533          
1 69130U 26110G   26156.86930582 -.00053675  00000+0 -28200-3 0  9992
2 69130  97.2839 353.1262 0001606  86.5092 273.6360 15.80753113  3851
STARLINK-37530          
1 69131U 26110H   26156.93185300  .00052184  00000+0  27125-3 0  9998
2 69131  97.2840 353.1944 0000830  62.1150 298.0203 15.80840143  3862
STARLINK-37660          
1 69132U 26110J   26157.91670139 -.01869442  00000+0 -21516-1 0  9999
2 69132  97.2845 354.1901 0001684  82.3170  16.3085 15.64974473  4008
STARLINK-37633          
1 69133U 26110K   26157.91670139 -.00727506  00000+0 -79362-2 0  9996
2 69133  97.2847 354.1968 0001329  95.5705  18.8900 15.65546749  4005
STARLINK-37361          
1 69134U 26110L   26157.91670139 -.02447630  00000+0 -18414-1 0  9996
2 69134  97.2841 354.2376 0001913  94.8469 111.7152 15.76032631  4006
STARLINK-37372          
1 69135U 26110M   26157.91670139 -.02546857  00000+0 -27535-1 0  9992
2 69135  97.2847 354.2142 0002008  86.3701  68.4413 15.67020516  4002
